[{"name":"Army Barrack","zipcode":970212,"streets":{"1":"Ajigba St.","2":"Ajila St.","3":"Barracks Rd.","4":"Gungur","5":"Kanji","6":"Keffi","7":"Lafiya Rail Line St.","8":"Lafia Rd.","9":"Mechanic Village Rd.","10":"Mission Ward","11":"Tsar","12":"Tse-Mkar St.","13":"Udei St.","14":"Ugba","16":"New Street","17":"New Street"}},{"name":"Eupi New Layout","zipcode":972261,"streets":["Adeoka St.","Ighama St.","Jos St.","Oji St.","Otukpo St.","Rice Mill Rd.","Haja","Ahmadu Bello Way","Alh.Rasaki Ave","Bank of the Norh","Enugu Rd","Goat Market","Ichama St","Inyi St","Jos St","New Garase","Ochalufe","Ochekwu St","Ochobo St","Otukpo St","Ugbokolo St"]},{"name":"Federal Low","zipcode":"972281","streets":["Enugu Rd.","Federal Housing Rd."]},{"name":"GRA","zipcode":970211,"streets":["Ali Akilu Rd.","Ahmadu Bello Way","Bank Rd.","Barracks Rd.","Hospital Rd.","Kashim Ibrahim St.","Plaza Rd.","Lagos St.","Rice Mill Rd.","Akpo Ade St.","Alagbata St.","Asa Rd.","Federal Rd.","G. R. A. Rd.","Obaganya Rd.","Otobu St.","Ring Rd.","St. Annes Rd.","Ugbaba Cr."]},{"name":"General Hospital","zipcode":972211,"streets":["Federal Rd.","Hospital Rd.","Obaganya Rd."]},{"name":"High Level Ass","zipcode":970211,"streets":["Aliade St.","Assembly Village St.","Calabar St.","Ichama","Inikpi","Joe Akahan St.","Katsina-Ala St.","Ogbomosho St.","Okpoga St.","Otukpo Rd.","Railway Bye Pass","Secretariat Rd.","Ushongo St.","Vandekya St."]},{"name":"Hodco Quarters","zipcode":970251,"streets":["Agatu St.","Ajala St.","Ajo St.","Awoku St.","Jona Jang St."]},{"name":"Kokoroo","zipcode":972211,"streets":["Aba Ln.","Abuja St.","Akpa St.","Alayi St.","Ameh St.","Augustine St.","Benue St.","Edumoga St.","El Dunia St.","Emenyeyi St.","Federal Housing Rd.","Federal Rd.","Fellowship Rd.","Ibadan St.","Ida St.","Igedde St.","J.C. Obande St.","Jamaica St.","Jericho Rd.","Kingstone Ave","Lagos St.","New Market Rd.","Okenyi St.","Okokoro St.","Okoroko Rd.","Olade Rd.","Otia Rd. B","Otia Rd. D","Otia Roads D.","Sokoto Rd.","Sunday Duilo St.","Uru Rd.","Adoka St","Ahmadu Bello Way","Unity Bank","Ichama St","Jos St","L.G. Seceratries","Oba St","Ochidom","Oji St","Salem Hospital","Udoibo Rd"]},{"name":"Sabon Gari","zipcode":972251,"streets":["Holiness Ave","Idoma Tech Company","Oyagebged St","Rice Mill","Agbo St.","Echeno St.","Obagaji St.","Ofutu St.","Ojira Rd.","Okpjko Rd.","Opega St.","Owukpa St.","Rice Mill Rd.","Agbo St"]},{"name":"Unijos Campis","zipcode":970213,"streets":["School of Basic Studies","G.T.C. Rd.","Ogiri- Oko St.","Owerri St.","Zaria Way","Adeoka St.","Ighama St.","Jos St.","Oji St.","Otukpo St.","Rice Mill Rd.","Haja","Ahmadu Bello Way","Alh.Rasaki Ave","Bank of the Norh","Enugu Rd","Goat Market","Ichama St","Inyi St","Jos St","New Garase","Ochalufe","Ochekwu St","Ochobo St","Otukpo St","Ugbokolo St"]},{"name":"Wadata","zipcode":970261,"streets":["Abuja St.","Akure St","Ali-Akilu","Ankpa Ward Rd.","Ayanbga St.","Bauchi St.","Beach Rd.","Benue Cr.","Cathedral Rd.","Clerk Ward","College Cr.","Egume St.","Ejime St.","Enugu St.","Fire Brigade Headquarters","Gombe St.","Ibadan St.","Igbo St.","Imane St.","Kaduna St.","Kano St.","Lagos","Madiko St.","Maiduguri St.","Masallachi Rd.","Ministry of Works","Niger Cr.","Oju St.","Onu Ln.","Onyegede St.","Owo Ln.","Port-Harcourt St.","Sankara St.","Sokoto St.","Tor Donga St.","Yandev St.","Yobe S St.","Zakibian St."]},{"name":"Wurukum","zipcode":970222,"streets":["Awe St.","First Ave.","Forth Ave.","Gboko Rd.","Hospital Way","Kashim Ibrahim St.","Keffi St.","Lobi Quarters","Makeri Zakpe","Nassarawa St.","New Bridge Rd.","New Uturkpo Rd.","Ogiri Oko St.","Onitsha Rd.","Otukpo Rd.","Owerri St.","Peter Achimegu St.","School L Ln.","Second Ave.","Shagamu St.","Third Ave.","Toshi Cl.","Ulayi St.","Wukari","Zion"]}]